Satellite: CAPE1
Catalog number: 31130
Epoch time:      07214.77070730
Element set:      82
Inclination:      098.0809 deg
RA of node:       286.0040 deg
Eccentricity:    0.0101927
Arg of perigee:   241.7202 deg
Mean anomaly:     117.3677 deg
Mean motion:   14.51872021 rev/day
Decay rate:        9.5e-07 rev/day^2
Epoch rev:            1537
Checksum:              259

/EX




From r.hoad at att.net  Thu Aug  2 20:09:11 2007
From: r.hoad at att.net (Ray Hoad)
Date: Thu, 02 Aug 2007 22:09:11 -0500
Subject: [keps]  orb07214.2l.amsat
Message-ID: <46B29C57.2010408@att.net>

SB KEPS @ AMSAT  $ORB07214.N
2Line Orbital Elements 07214.AMSAT

HR AMSAT ORBITAL ELEMENTS FOR AMATEUR SATELLITES IN NASA FORMAT
FROM WA5QGD FORT WORTH,TX August 2, 2007
Send Subscribe/unsubscribe to KEPS at 
http://www.amsat.org/mailman/listinfo/keps
BID: ORB07214.N

DECODE 2-LINE ELSETS WITH THE FOLLOWING KEY:
1 AAAAAU 00  0  0 BBBBB.BBBBBBBB  .CCCCCCCC  00000-0  00000-0 0  DDDZ
2 AAAAA EEE.EEEE FFF.FFFF GGGGGGG HHH.HHHH III.IIII JJ.JJJJJJJJKKKKKZ
KEY: A-CATALOGNUM B-EPOCHTIME C-DECAY D-ELSETNUM E-INCLINATION F-RAAN
G-ECCENTRICITY H-ARGPERIGEE I-MNANOM J-MNMOTION K-ORBITNUM Z-CHECKSUM

TO ALL RADIO AMATEURS BT

AO-07
1 07530U 74089B   07214.50908191 -.00000028  00000-0  10000-3 0  9401
2 07530 101.5113 251.1489 0011908 164.2977 195.8468 12.53572420496926
AO-10
1 14129U 83058B   07213.22754333  .00000099  00000-0  10000-3 0 04068
2 14129 026.2918 263.9637 6066300 043.7153 350.8790 02.05867990181498
UO-11
1 14781U 84021B   07213.97499812  .00000258  00000-0  41759-4 0 04358
2 14781 098.1882 237.5539 0009731 030.6217 329.5574 14.79570537256503
RS-15
1 23439U 94085A   07214.72336854 -.00000039  00000-0  10597-3 0   493
2 23439 064.8204 291.6635 0158301 182.3960 177.6220 11.27552233518949
FO-29
1 24278U 96046B   07213.90619636 -.00000066  00000-0 -28210-4 0  5561
2 24278 098.5548 167.4172 0350784 325.0301 032.8242 13.52930962541082
SO-33
1 25509U 98061B   07213.63117821  .00000285  00000-0  45857-4 0  9850
2 25509 031.4306 328.8101 0355109 104.7922 259.2399 14.28170991457750
AO-40
1 26609U 00072B   07212.92691794 -.00000223  00000-0  10000-3 0 09139
2 26609 006.0787 129.3990 7974061 347.5058 000.9676 01.25588399031004
VO-52
1 28650U 05017B   07213.36631847  .00000380  00000-0  55020-4 0 06922
2 28650 097.8294 283.0690 0028488 106.0361 254.4003 14.81343362121105
PO-63
1 29712U 07001D   07214.63216389  .00000425  00000-0  63325-4 0  6004
2 29712 097.9196 273.1433 0013942 344.9175 015.1615 14.79778494 30203
AO-16
1 20439U 90005D   07213.51541238  .00000018  00000-0  21740-4 0 00958
2 20439 098.1976 205.5771 0011985 053.6603 306.5695 14.31766606915036
LO-19
1 20442U 90005G   07213.96551546 -.00000073  00000-0 -12113-4 0 00232
2 20442 098.1799 215.2893 0012952 051.0397 309.1958 14.32006483915248
AO-27
1 22825U 93061C   07214.47393222 -.00000141  00000-0 -39234-4 0  7445
2 22825 098.3341 182.3457 0009065 120.6724 239.5354 14.29213459722104
IO-26
1 22826U 93061D   07213.81332012  .00000002  00000-0  16819-4 0 04437
2 22826 098.3268 182.7639 0009495 118.8921 241.3211 14.29460692722098
PO-28
1 22829U 93061G   07213.46715350 -.00000075  00000-0 -12865-4 0 07208
2 22829 098.3157 183.5934 0010722 096.7772 263.4650 14.30161220722288
GO-32
1 25397U 98043D   07213.78992825  .00000095  00000-0  60241-4 0 03651
2 25397 098.4107 259.0006 0002201 096.0604 264.0820 14.23129442470644
MO-46
1 26548U 00057D   07213.89975236 -.00000054  00000-0  11247-4 0 08616
2 26548 064.5569 041.2461 0009877 190.0460 170.0424 14.83162571370322
NO-44
1 26931U 01043C   07213.77609812  .00000134  00000-0  84533-4 0  6488
2 26931 067.0529 030.0535 0007337 261.6047 098.4183 14.29492563304616
SO-50
1 27607U 02058C   07213.73248100 -.00000094  00000-0  72067-5 0  3721
2 27607 064.5590 306.7500 0059598 347.7717 012.1935 14.71275194247821
CO-55
1 27844U 03031E   07213.74714877  .00000056  00000-0  46455-4 0   866
2 27844 098.7183 221.4242 0009612 326.7186 033.3382 14.20524345211940
CO-57
1 27848U 03031J   07213.56221949  .00000020  00000-0  29616-4 0   459
2 27848 098.7180 220.4214 0009744 330.4050 029.6588 14.20341672211897
AO-51
1 28375U 04025K   07213.57671524  .00000002  00000-0  13125-4 0 08779
2 28375 098.1092 250.5491 0085308 045.0078 315.7990 14.40575570162258
CO-56
1 28941U 06005C   07214.69910309  .00025525  24198-5  25115-3 0  5188
2 28941 098.1263 281.0196 0220970 108.1796 254.3624 15.41583898 80594
HO-59
1 29484U 06041F   07214.70353032  .00047917  30162-5  30417-3 0  5556
2 29484 098.2820 271.6386 0197068 098.9828 263.3703 15.54527767 48292
NO-60
1 29661U 06055C   07150.05824307  .13324117  12618-4  10400-3 0  3000
2 29661 051.6186 176.5045 0007204 190.7749 188.7342 16.52052832 25544
NO-61
1 29664U 06055F   07214.40513097  .00035580  11742-4  99403-4 0  3506
2 29664 051.6275 208.2690 0010523 154.8958 205.2638 15.94613943 35529
CP4
1 31122U 07012F   07213.85060358  .00000596  00000-0  14251-3 0 01018
2 31122 098.0828 285.6496 0084636 243.1386 116.1120 14.55022522015499
CP3
1 31128U 07012M   07213.87611149 -.00000049  00000-0  00000 0 0   922
2 31128 098.0841 285.1456 0101748 244.3186 114.7473 14.51851522 15453
LIBERT
1 31129U 07012N   07214.62782686  .00000383  00000-0  10000-3 0  2659
2 31129 098.0804 285.8755 0101489 242.4175 116.6616 14.51945261 15545
NOAA-10
1 16969U 86073A   07214.56955319  .00000061  00000-0  43228-4 0  7518
2 16969 098.7444 231.7773 0013090 035.8596 324.3461 14.27330954 85844
NOAA-11
1 19531U 88089A   07214.31073032  .00000030  00000-0  38430-4 0  7583
2 19531 098.8127 302.9025 0010815 259.2642 100.7364 14.14847320972678
NOAA-12
1 21263U 91032A   07214.41684696  .00000069  00000-0  48141-4 0  2548
2 21263 098.7526 211.5846 0012306 338.0382 022.0259 14.25551466842833
MET-3/5
1 21655U 91056A   07213.90611155  .00000051  00000-0  10000-3 0 03412
2 21655 082.5527 330.6398 0014685 092.3179 267.9626 13.17011832767428
MET-2/21
1 22782U 93055A   07213.78289474 -.00000032  00000-0 -42867-4 0 08947
2 22782 082.5481 005.7362 0024046 107.0467 253.3315 13.83618630702825
OKEAN-4
1 23317U 94066A   07213.73907480  .00000061  00000-0  45074-5 0 03325
2 23317 082.5359 254.0354 0024083 101.4373 258.9564 14.82521668690804
NOAA-14
1 23455U 94089A   07214.79065921  .00000002  00000-0  25048-4 0  7399
2 23455 098.9868 281.2192 0008795 333.2361 026.8332 14.13723922649225
SICH-1
1 23657U 95046A   07214.75663686  .00000264  00000-0  30381-4 0  1328
2 23657 082.5264 034.0299 0025850 090.0010 270.4155 14.81505068642924
NOAA-15
1 25338U 98030A   07214.45490434  .00000130  00000-0  74256-4 0   946
2 25338 098.5308 209.8368 0009524 253.5094 106.5051 14.24658755479274
RESURS
1 25394U 98043A   07213.94630157 -.00000002  00000-0  17317-4 0 07023
2 25394 098.4358 266.6578 0002468 060.0212 300.1211 14.24141934470869
FENGYUN1
1 25730U 99025A   07213.48888965  .00000090  00000-0  78037-4 0  1890
2 25730 098.6882 195.6403 0020869 004.6801 355.4529 14.07567674423843
OKEAN-0
1 25860U 99039A   07213.59495361  .00000054  00000-0  15441-4 0  1198
2 25860 097.7318 213.7237 0000661 095.9440 264.1839 14.73466176432183
NOAA-16
1 26536U 00055A   07214.58911899 -.00000180  00000-0 -72403-4 0  5151
2 26536 099.1188 192.3448 0011311 047.0164 313.1953 14.12441613353654
NOAA-17
1 27453U 02032A   07214.75629465 -.00000079  00000-0 -15791-4 0  5256
2 27453 098.5768 282.9367 0010993 322.3515 037.6898 14.23897616265344
NOAA-18
1 28654U 05018A   07214.76850250 -.00000039  00000-0  24655-5 0   605
2 28654 098.8294 155.2734 0014976 133.6274 226.6167 14.11081611113422
HUBBLE
1 20580U 90037B   07213.44423882  .00000312  00000-0  11290-4 0 09333
2 20580 028.4684 254.9995 0003879 214.3994 145.6346 15.00265041746764
UARS
1 21701U 91063B   07213.92349786  .00002106  00000-0  41708-4 0 01435
2 21701 056.9756 115.3939 0085323 281.0084 078.1382 15.48580253872834
PO-34
1 25520U 98064B   07213.96338297  .00000353  00000-0  77064-5 0 07922
2 25520 028.4600 162.3683 0005136 037.5103 322.5849 15.17028025484481
ISS
1 25544U 98067A   07214.92047792  .00008503  00000-0  57458-4 0  7047
2 25544 051.6315 222.4484 0008825 193.9630 239.2762 15.76032450498154
OO-38
1 26063U 00004C   07214.78884651 -.00000030  00000-0  10000-4 0  9744
2 26063 100.2281 226.0198 0037310 029.0292 331.2946 14.35811767393735
UWE-1
1 28892U 05043C   07213.52739530  .00000006  00000-0  11044-4 0 08100
2 28892 098.1264 109.2620 0017067 335.2705 024.7626 14.59526235093828
CO-58
1 28895U 05043F   07213.71029524  .00000054  00000-0  21176-4 0  7894
2 28895 098.1289 109.6700 0017509 334.3368 025.6946 14.59572196 93739
NCUBE2
1 28897U 05043H   07213.64293349  .00000103  00000-0  31175-4 0 03189
2 28897 098.1263 109.5569 0017031 336.1939 023.8471 14.59736007086007
NMARS
1 29662U 06055D   07126.39603970  .07031946  12599-4  11450-3 0  2632
2 29662 051.6121 302.3682 0004459 252.1654 110.7411 16.47981436 21652
FCAL
1 29667U 06055J   07214.48950889  .00015714  11191-4  62795-4 0  2330
2 29667 051.6304 211.1832 0013306 159.7130 200.4418 15.89741963 35367
FALCON
1 30776U 07006E   07213.63198895  .00000191  00000-0  17073-4 0 01094
2 30776 035.4356 297.1689 0000391 084.3487 275.7273 15.02742718021890
MAST
1 31126U 07012K   07213.76587559  .00000392  00000-0  10000-3 0 00975
2 31126 098.0808 285.2877 0093823 244.3070 114.8395 14.53355512015474
CAPE1
1 31130U 07012P   07214.77070730  .00000095  00000-0  33261-4 0   829
2 31130 098.0809 286.0040 0101927 241.7202 117.3677 14.51872021 15371
/EX





From r.hoad at att.net  Thu Aug  9 19:19:05 2007
From: r.hoad at att.net (Ray Hoad)
Date: Thu, 09 Aug 2007 21:19:05 -0500
Subject: [keps]  orb07221.amsat
Message-ID: <46BBCB19.9080502@att.net>

SB KEPS @ AMSAT  $ORB07221.O
Orbital Elements  07221.OSCAR

HR AMSAT ORBITAL ELEMENTS FOR OSCAR SATELLITES
FROM WA5QGD FORT WORTH,TX August 9, 2007
Send Subscribe/unsubscribe to KEPS at 
http://www.amsat.org/mailman/listinfo/keps
BID: ORB07221.O
TO ALL RADIO AMATEURS BT

